QIANFAN-60              
1 62790U 25016F   25213.92801597  .00000051  00000+0  60364-4 0  9990
2 62790  88.9828 116.8080 0016374  15.3468 344.8177 13.50957103 29291
QIANFAN-61              
1 62791U 25016G   25213.94057700  .00000124  00000+0  17300-3 0  9994
2 62791  88.9896 116.8742 0015790  14.3162 345.8433 13.50957732 29310
QIANFAN-62              
1 62792U 25016H   25213.87044878  .00000123  00000+0  17231-3 0  9991
2 62792  88.9843 116.8218 0017209  14.2228 345.9404 13.50956678 29294
QIANFAN-63              
1 62793U 25016J   25213.88280453  .00000114  00000+0  15792-3 0  9994
2 62793  88.9849 116.7602 0017151  18.4958 341.6813 13.50953760 29330
QIANFAN-64              
1 62794U 25016K   25213.87453773  .00000075  00000+0  96904-4 0  9992
2 62794  88.9836 116.7590 0014811  13.5887 346.5660 13.50956270 29322
QIANFAN-65              
1 62795U 25016L   25213.78415248  .00000126  00000+0  17684-3 0  9992
2 62795  88.9832 116.7961 0015049  15.4883 344.6725 13.50960283 29298
QIANFAN-66              
1 62796U 25016M   25213.88687153  .00000139  00000+0  19743-3 0  9992
2 62796  88.9851 116.7296 0016004  10.5690 349.5795 13.50955354 29356
QIANFAN-67              
1 62797U 25016N   25213.89112545  .00000113  00000+0  15600-3 0  9992
2 62797  88.9842 116.7677 0016217  16.9338 343.2351 13.50964050 29324
QIANFAN-68              
1 62798U 25016P   25213.82111005  .00000120  00000+0  16677-3 0  9999
2 62798  88.9845 116.8183 0016790  15.2546 344.9108 13.50961457 29292
QIANFAN-69              
1 62799U 25016Q   25213.89922952  .00000102  00000+0  13886-3 0  9997
2 62799  88.9824 116.7054 0016979  15.9334 344.2347 13.50957057 29342
QIANFAN-70              
1 62800U 25016R   25213.91576911  .00000127  00000+0  17815-3 0  9996
2 62800  88.9845 116.8139 0016241   7.0705 353.0672 13.50960892 29305
QIANFAN-71              
1 62801U 25016S   25213.83767167  .00000130  00000+0  18302-3 0  9999
2 62801  88.9839 116.8096 0017011  19.3918 340.7877 13.50960704 29299
QIANFAN-72              
1 62802U 25016T   25213.90746560  .00000127  00000+0  17811-3 0  9992
2 62802  88.9829 116.8240 0020600  24.1335 336.0777 13.50956019 29296
QIANFAN-73              
1 63159U 25046A   25213.88111138  .00000148  00000+0  21098-3 0  9990
2 63159  88.9858 333.7126 0016435 143.3909 216.8368 13.50958524 29473
QIANFAN-74              
1 63160U 25046B   25213.86470322  .00000159  00000+0  22732-3 0  9991
2 63160  88.9858 333.6029 0001958 102.3368 257.8002 13.50963098 29533
QIANFAN-75              
1 63161U 25046C   25213.77830579  .00000162  00000+0  23179-3 0  9996
2 63161  88.9859 333.8434 0017538 146.8146 213.4109 13.50959524 29394
QIANFAN-76              
1 63162U 25046D   25213.84808371  .00000180  00000+0  26065-3 0  9997
2 63162  88.9859 333.8175 0015107 146.4577 213.7534 13.50955606 29416
QIANFAN-77              
1 63163U 25046E   25213.87216459  .00000348  00000+0  24383-3 0  9998
2 63163  88.9856 332.9111 0016629 131.3386 228.9225 13.96005479 29919
QIANFAN-78              
1 63164U 25046F   25213.88936840  .00000167  00000+0  24027-3 0  9997
2 63164  88.9858 333.6787 0016417 148.9546 211.2579 13.50958917 29490
QIANFAN-79              
1 63165U 25046G   25213.84402346  .00000177  00000+0  25542-3 0  9997
2 63165  88.9862 333.7856 0016137 147.4429 212.7720 13.50961047 29433
QIANFAN-80              
1 63166U 25046H   25213.86059609  .00000146  00000+0  20696-3 0  9991
2 63166  88.9859 333.4946 0015031 150.9834 209.2156 13.50961248 29592
QIANFAN-81              
1 63167U 25046J   25213.83998496  .00000154  00000+0  21925-3 0  9990
2 63167  88.9859 333.5651 0016280 140.7934 219.4400 13.50960098 29544
QIANFAN-82              
1 63168U 25046K   25213.87275700  .00000084  00000+0  11106-3 0  9993
2 63168  88.9858 333.6052 0014280 147.3010 212.9028 13.50956928 29536
QIANFAN-83              
1 63169U 25046L   25213.86886532  .00000200  00000+0  24402-3 0  9997
2 63169  88.9858 333.6420 0015699 140.8028 219.4269 13.61930887 29513
QIANFAN-84              
1 63170U 25046M   25213.90162839  .00000163  00000+0  23429-3 0  9997
2 63170  88.9858 333.7354 0017297 144.8197 215.4099 13.50963806 29465
QIANFAN-85              
1 63171U 25046N   25213.89756731  .00000147  00000+0  20914-3 0  9994
2 63171  88.9858 333.6080 0014628 146.3643 213.8440 13.50958008 29537
QIANFAN-86              
1 63172U 25046P   25213.90579594  .00000156  00000+0  22273-3 0  9997
2 63172  88.9860 333.4662 0012430 149.2773 210.9108 13.50958310 29614
QIANFAN-87              
1 63173U 25046Q   25213.87688131  .00000164  00000+0  23455-3 0  9994
2 63173  88.9856 333.5858 0013244 145.1597 215.0423 13.50956143 29541
QIANFAN-88              
1 63174U 25046R   25213.89353798  .00000154  00000+0  22004-3 0  9993
2 63174  88.9859 333.5355 0013437 152.4909 207.6956 13.50958505 29574
QIANFAN-89              
1 63175U 25046S   25213.78232776  .00000164  00000+0  23487-3 0  9991
2 63175  88.9859 333.7359 0017953 145.7704 214.4608 13.50963255 29451
QIANFAN-90              
1 63176U 25046T   25213.88518220  .00000174  00000+0  25076-3 0  9991
2 63176  88.9859 333.6975 0014946 142.9979 217.2206 13.50961822 29483
